[{"OBJECT_NAME":"STARLINK-5317","OBJECT_ID":"2023-010Q","EPOCH":"2026-03-09T22:25:22.359648","MEAN_MOTION":14.98332531,"ECCENTRICITY":0.00032076,"INCLINATION":70.0002,"RA_OF_ASC_NODE":43.7962,"ARG_OF_PERICENTER":268.2571,"MEAN_ANOMALY":91.822,"EPHEMERIS_TYPE":0,"CLASSIFICATION_TYPE":"U","NORAD_CAT_ID":55283,"ELEMENT_SET_NO":999,"REV_AT_EPOCH":17281,"BSTAR":3.48302e-6,"MEAN_MOTION_DOT":-5.1e-7,"MEAN_MOTION_DDOT":0},{"OBJECT_NAME":"HAWK-10C","OBJECT_ID":"2024-149DM","EPOCH":"2026-03-09T19:12:00.010368","MEAN_MOTION":14.96177491,"ECCENTRICITY":0.0003886,"INCLINATION":97.6791,"RA_OF_ASC_NODE":145.3128,"ARG_OF_PERICENTER":47.6078,"MEAN_ANOMALY":312.5472,"EPHEMERIS_TYPE":0,"CLASSIFICATION_TYPE":"U","NORAD_CAT_ID":60575,"ELEMENT_SET_NO":999,"REV_AT_EPOCH":8512,"BSTAR":0.00025720063,"MEAN_MOTION_DOT":2.841e-5,"MEAN_MOTION_DDOT":0}]
